STARLINK-32476          
1 61550U 24184U   26048.56524809 -.00000040  00000+0  10763-4 0  9990
2 61550  53.1598 107.5736 0001342  90.0251 270.0903 15.30197702 75420
STARLINK-32366          
1 61551U 24184V   26048.44411536 -.00000055  00000+0  10255-4 0  9992
2 61551  53.1588 108.2426 0000984 103.2534 256.8576 15.30197008 75401
QIANFAN-19              
1 61552U 24185A   26048.58446378  .00000407  00000+0  20516-3 0  9991
2 61552  88.9756  70.2712 0009237  90.6452 269.5794 14.14371090 79110
QIANFAN-20              
1 61553U 24185B   26048.52037868  .00000329  00000+0  18248-3 0  9998
2 61553  88.9754  70.6698 0007921 120.0514 240.1456 14.08918138 78898
QIANFAN-21              
1 61554U 24185C   26048.56952532  .00000530  00000+0  23000-3 0  9993
2 61554  88.9673  69.1408 0012157 136.8283 223.3864 14.22706976 79478
QIANFAN-22              
1 61555U 24185D   26048.55439907  .00000191  00000+0  15383-3 0  9997
2 61555  88.9739  71.9171 0007758 138.7958 221.3800 13.86331094 78191
QIANFAN-23              
1 61556U 24185E   26048.53632280  .00000490  00000+0  23944-3 0  9999
2 61556  88.9748  70.0549 0009943  99.3426 260.8887 14.16373492 79209
QIANFAN-24              
1 61557U 24185F   26048.58617701  .00000561  00000+0  23845-3 0  9995
2 61557  88.9732  69.3447 0011713  82.0479 278.2042 14.23907515 79535
QIANFAN-25              
1 61558U 24185G   26048.55262467  .00000433  00000+0  25584-3 0  9998
2 61558  88.9744  70.6174 0011962 108.2127 252.0358 14.05979172 78894
QIANFAN-26              
1 61559U 24185H   26048.56083300  .00000257  00000+0  24388-3 0  9992
2 61559  88.9745  72.5304 0006580 151.1038 209.0494 13.77853212 77874
QIANFAN-27              
1 61560U 24185J   26048.55696049  .00000476  00000+0  18807-3 0  9995
2 61560  88.9745  69.0995 0009907  75.0893 285.1398 14.27424823 79690
QIANFAN-28              
1 61561U 24185K   26048.57505366  .00000728  00000+0  28645-3 0  9990
2 61561  88.9760  69.1042 0009511  75.1623 285.0625 14.28181672 79713
QIANFAN-29              
1 61562U 24185L   26048.54287721  .00000184  00000+0  26581-3 0  9993
2 61562  88.9720  74.3996 0008856 206.6306 153.4391 13.51037257 76816
QIANFAN-30              
1 61563U 24185M   26048.56834463  .00000168  00000+0  24592-3 0  9999
2 61563  88.9740  73.9481 0007191 187.3676 172.7370 13.50012876 77089
QIANFAN-31              
1 61564U 24185N   26048.58643757  .00000192  00000+0  24960-3 0  9992
2 61564  88.9724  73.6416 0006921 177.6699 182.4489 13.57996296 77234
QIANFAN-32              
1 61565U 24185P   26048.57391378  .00000139  00000+0  19670-3 0  9994
2 61565  88.9784  74.1021 0008269 221.3172 138.7355 13.50759390 77061
QIANFAN-33              
1 61566U 24185Q   26048.53698281  .00000355  00000+0  24675-3 0  9995
2 61566  88.9735  71.3516 0009190 112.4471 247.7680 13.96609288 78481
QIANFAN-34              
1 61567U 24185R   26048.58513520  .00000299  00000+0  18572-3 0  9999
2 61567  88.9714  70.8211 0007396 114.2974 245.8979 14.02370151 78728
QIANFAN-35              
1 61568U 24185S   26048.54546508  .00000670  00000+0  26379-3 0  9995
2 61568  88.9741  69.0270 0008733  73.2819 286.9334 14.28091531 79713
QIANFAN-36              
1 61569U 24185T   26048.54164537  .00000134  00000+0  17602-3 0  9998
2 61569  88.9719  74.0782 0005520 189.9120 170.1926 13.55609605 76976
GAOFEN-12 05            
1 61571U 24186A   26048.54305096  .00000508  00000+0  72629-4 0  9995
2 61571  97.9134  58.2677 0000967  55.9774 304.1530 14.80841038 71639
STARLINK-11356 [DTC]    
1 61574U 24187A   26048.33872277 -.00001622  00000+0 -85318-5 0  9996
2 61574  53.1594  36.6029 0001493  79.1041 281.0145 15.69698112 77583
STARLINK-11376 [DTC]    
1 61575U 24187B   26048.39747877  .00001061  00000+0  13619-4 0  9999
2 61575  53.1588  36.2602 0001189 113.2764 246.8379 15.69696855 77517
STARLINK-11372 [DTC]    
1 61576U 24187C   26048.45624788 -.00002500  00000+0 -15791-4 0  9996
2 61576  53.1587  35.9054 0000853 100.1761 259.9353 15.69698302 77575
STARLINK-11375 [DTC]    
1 61577U 24187D   26048.19666747 -.00003596  00000+0 -24834-4 0  9993
2 61577  53.1593  37.1314 0001648  71.4733 288.6464 15.69700479 77535
STARLINK-11285 [DTC]    
1 61578U 24187E   26048.25542293  .00000445  00000+0  85402-5 0  9997
2 61578  53.1595  36.7874 0001858  52.0340 308.0846 15.69706551 77499
STARLINK-11275 [DTC]    
1 61579U 24187F   26048.25052654  .00000619  00000+0  99730-5 0  9997
2 61579  53.1583  36.7525 0000785  90.8441 269.2667 15.69679220 77491
STARLINK-11342 [DTC]    
1 61580U 24187G   26048.43661417 -.00000330  00000+0  21370-5 0  9998
2 61580  53.1593  35.7756 0001249 103.8467 256.2690 15.69712561 77621
STARLINK-11374 [DTC]    
1 61581U 24187H   26048.43181062  .00001243  00000+0  15114-4 0  9993
2 61581  53.1582  36.4817 0001064  81.8120 278.3019 15.69709636 77610
STARLINK-11373 [DTC]    
1 61582U 24187J   26048.42691886 -.00001483  00000+0 -73903-5 0  9992
2 61582  53.1590  36.4409 0001369 100.5588 259.5585 15.69694022 77567
STARLINK-11368 [DTC]    
1 61583U 24187K   26048.42200307  .00002952  00000+0  29222-4 0  9991
2 61583  53.1589  36.4113 0001483  85.6662 274.4526 15.69708839 77519
STARLINK-11370 [DTC]    
1 61584U 24187L   26048.41709089 -.00003597  00000+0 -24838-4 0  9998
2 61584  53.1579  36.3812 0001271 101.7011 258.4149 15.69712731 77561
STARLINK-11361 [DTC]    
1 61585U 24187M   26048.34852587  .00213150  00000+0  17176-2 0  9994
2 61585  53.1564  36.6619 0001097  84.1596 275.9547 15.69734622 77550
STARLINK-11360 [DTC]    
1 61586U 24187N   26048.34362860 -.00002105  00000+0 -12525-4 0  9998
2 61586  53.1592  36.6235 0001527 116.4142 243.7032 15.69693979 77607
STARLINK-32353          
1 61587U 24187P   26048.56636598  .00024607  00000+0  83971-3 0  9996
2 61587  53.1609 158.4316 0001472  33.8737 326.2358 15.30218022 75944
STARLINK-32325          
1 61588U 24187Q   26048.52004280  .00000688  00000+0  35360-4 0  9993
2 61588  53.1594 158.8565 0001527 114.4374 245.6786 15.30199203 75995
STARLINK-32416          
1 61589U 24187R   26048.52412292 -.00000763  00000+0 -13653-4 0  9997
2 61589  53.1603 143.2508 0001257 105.9417 254.1722 15.30197500 76214
STARLINK-32413          
1 61590U 24187S   26048.53693184 -.00000837  00000+0 -16122-4 0  9997
2 61590  53.1595 158.9468 0001206  71.2126 288.9006 15.30205062 75997
STARLINK-32409          
1 61591U 24187T   26048.57688870 -.00001433  00000+0 -36266-4 0  9992
2 61591  53.1593 143.5770 0001160 113.5109 246.6014 15.30194290 76218
STARLINK-32422          
1 61592U 24187U   26048.52306382 -.00002603  00000+0 -75777-4 0  9993
2 61592  53.1595 143.2355 0001353 109.4591 250.6556 15.30206609 76214
STARLINK-32397          
1 61593U 24187V   26048.52479531  .00000366  00000+0  24509-4 0  9990
2 61593  53.1605 156.7507 0001301 106.5591 253.5553 15.30178349 76023
ONEWEB-0015             
1 61594U 24188A   26048.52354365  .00000275  00000+0  74014-3 0  9993
2 61594  87.8824  44.8986 0001951  69.2915 290.8422 13.11414742 68774
ONEWEB-0687             
1 61595U 24188B   26048.47944194  .00000012  00000+0 -12589-5 0  9994
2 61595  87.9104  29.6643 0002335  76.6988 283.4404 13.17649437 70135
ONEWEB-0688             
1 61596U 24188C   26048.50813298  .00000038  00000+0  65171-4 0  9990
2 61596  87.9101  29.6573 0002275  50.2559 309.8773 13.17649206 70136
ONEWEB-0689             
1 61597U 24188D   26048.48113918 -.00000428  00000+0 -12429-2 0  9991
2 61597  87.8839  44.8449 0002217  86.4016 273.7365 13.11418393 68767
ONEWEB-0690             
1 61598U 24188E   26048.49131503 -.00000081  00000+0 -26325-3 0  9999
2 61598  87.8840  44.8630 0001193  96.0004 264.1259 13.11420168 68947
ONEWEB-0691             
1 61599U 24188F   26048.48622789 -.00000275  00000+0 -81265-3 0  9999
2 61599  87.8844  44.7635 0002001  73.6610 286.4738 13.11419911 68795
ONEWEB-0692             
1 61600U 24188G   26048.50658564  .00000428  00000+0  11710-2 0  9990
2 61600  87.8830  44.8949 0002439 105.9016 254.2381 13.11418261 68789
ONEWEB-0693             
1 61601U 24188H   26048.44401164  .00000015  00000+0  45349-5 0  9996
2 61601  87.9102  29.6915 0001090  80.8637 279.2617 13.17649761 70115
ONEWEB-0695             
1 61602U 24188J   26048.48284879 -.00000407  00000+0 -11849-2 0  9995
2 61602  87.8828  44.8908 0002386  91.9297 268.2104 13.11417091 68776
ONEWEB-0697             
1 61603U 24188K   26048.51506621  .00000457  00000+0  12542-2 0  9996
2 61603  87.8826  44.8736 0002337 105.2991 254.8396 13.11417281 68764
ONEWEB-0698             
1 61604U 24188L   26048.49301563 -.00000005  00000+0 -49886-4 0  9996
2 61604  87.8829  44.8934 0001785 125.5589 234.5705 13.11419529 68780
ONEWEB-0699             
1 61605U 24188M   26048.56332178  .00000448  00000+0  12481-2 0  9999
2 61605  87.8757  60.0933 0002199 107.4338 252.7030 13.10369842 67649
ONEWEB-0700             
1 61606U 24188N   26048.56497625  .00000430  00000+0  11959-2 0  9999
2 61606  87.8772  59.9850 0002472  98.3727 261.7681 13.10369342 67632
ONEWEB-0701             
1 61607U 24188P   26048.58155643 -.00000427  00000+0 -12587-2 0  9999
2 61607  87.8757  60.0892 0002295 108.2045 251.9332 13.10369006 67644
ONEWEB-0702             
1 61608U 24188Q   26048.53878873 -.00000328  00000+0 -96164-3 0  9996
2 61608  87.8840  44.7694 0002650 103.3863 256.7561 13.11413990 68805
ONEWEB-0704             
1 61609U 24188R   26048.56996905  .00000144  00000+0  37763-3 0  9991
2 61609  87.8767  60.0656 0002711 104.4914 255.6515 13.10369661 67620
ONEWEB-0705             
1 61610U 24188S   26048.57493111 -.00000042  00000+0 -15725-3 0  9998
2 61610  87.8757  60.0797 0002987  84.6793 275.4675 13.10368421 59795
ONEWEB-0706             
1 61611U 24188T   26048.56000327  .00000605  00000+0  16981-2 0  9998
2 61611  87.8749  60.0970 0002496  96.7392 263.4020 13.10370537 67717
